ATLAS CENTAUR 2         
1 00694U 63047A   26022.45123237  .00002505  00000+0  29714-3 0  9995
2 00694  30.3535  94.0180 0548209  32.8479 330.5002 14.11929615125081
THOR AGENA D R/B        
1 00733U 64002A   26022.47136438  .00000390  00000+0  15613-3 0  9993
2 00733  99.1225  33.2945 0033465  34.5085 325.8261 14.33987426231678
SL-3 R/B                
1 00877U 64053B   26022.63494481  .00000653  00000+0  15078-3 0  9998
2 00877  65.0771 106.2551 0077195 306.9094  52.4949 14.61315629260065
SL-8 R/B                
1 02802U 67045B   26022.55486601  .00000542  00000+0  15738-3 0  9998
2 02802  74.0104  74.2485 0062837  92.6789 268.1563 14.45579469 82350
SL-8 R/B                
1 03230U 68040B   26022.51782555  .00004348  00000+0  32493-3 0  9998
2 03230  74.0305  48.0099 0026006 243.8074 116.0440 15.02867557 83071
OAO 2                   
1 03597U 68110A   26022.69889863  .00000496  00000+0  13886-3 0  9996
2 03597  34.9920 161.9934 0005590 195.8543 164.1973 14.47273902 12430
ISIS 1                  
1 03669U 69009A   26022.77936442  .00000578  00000+0  40519-3 0  9993
2 03669  88.4534 160.3117 1707825 181.8015 177.6282 11.30384985343343
SERT 2                  
1 04327U 70009A   26022.81704527  .00000073  00000+0  15654-3 0  9991
2 04327  99.2704 328.4354 0004078 287.0899 105.7730 13.58724205773669
SL-3 R/B                
1 05118U 71028B   26022.90031617  .00035835  00000+0  48255-3 0  9992
2 05118  81.2369 108.4311 0018087  93.9960 266.3359 15.57474301981531
ASTEX 1                 
1 05560U 71089A   26022.74697667  .00001163  00000+0  29596-3 0  9999
2 05560  92.7156 136.8924 0013740 234.8374 125.1546 14.50704822855642
SL-8 R/B                
1 05730U 71119B   26022.64389068  .00008332  00000+0  43348-3 0  9990
2 05730  73.8864 261.7092 0555628 237.7417 116.8749 14.36626138648871
OAO 3 (COPERNICUS)      
1 06153U 72065A   26022.86664536  .00000682  00000+0  14436-3 0  9997
2 06153  35.0038 198.3787 0006176 150.9703   9.0316 14.59950429839494
