CCSDS_OMM_VERS = 2.0
CREATION_DATE  = 
ORIGINATOR     = 

OBJECT_NAME    = ATLAS CENTAUR 2
OBJECT_ID      = 1963-047A
CENTER_NAME    = EARTH
REF_FRAME      = TEME
TIME_SYSTEM    = UTC
MEAN_ELEMENT_THEORY = SGP/SGP4

EPOCH          = 2026-01-22T10:49:46.476768
MEAN_MOTION    = 14.11929615
ECCENTRICITY   = .05482093
INCLINATION    = 30.3535
RA_OF_ASC_NODE = 94.0180
ARG_OF_PERICENTER = 32.8479
MEAN_ANOMALY   = 330.5002

EPHEMERIS_TYPE = 0
CLASSIFICATION_TYPE = U
NORAD_CAT_ID   = 694
ELEMENT_SET_NO = 999
REV_AT_EPOCH   = 12508
BSTAR          = .29714379E-3
MEAN_MOTION_DOT = .2505E-4
MEAN_MOTION_DDOT = 0

CCSDS_OMM_VERS = 2.0
CREATION_DATE  = 
ORIGINATOR     = 

OBJECT_NAME    = THOR AGENA D R/B
OBJECT_ID      = 1964-002A
CENTER_NAME    = EARTH
REF_FRAME      = TEME
TIME_SYSTEM    = UTC
MEAN_ELEMENT_THEORY = SGP/SGP4

EPOCH          = 2026-01-22T11:18:45.882432
MEAN_MOTION    = 14.33987426
ECCENTRICITY   = .0033465
INCLINATION    = 99.1225
RA_OF_ASC_NODE = 33.2945
ARG_OF_PERICENTER = 34.5085
MEAN_ANOMALY   = 325.8261

EPHEMERIS_TYPE = 0
CLASSIFICATION_TYPE = U
NORAD_CAT_ID   = 733
ELEMENT_SET_NO = 999
REV_AT_EPOCH   = 23167
BSTAR          = .15613418E-3
MEAN_MOTION_DOT = .39E-5
MEAN_MOTION_DDOT = 0

CCSDS_OMM_VERS = 2.0
CREATION_DATE  = 
ORIGINATOR     = 

OBJECT_NAME    = SL-3 R/B
OBJECT_ID      = 1964-053B
CENTER_NAME    = EARTH
REF_FRAME      = TEME
TIME_SYSTEM    = UTC
MEAN_ELEMENT_THEORY = SGP/SGP4

EPOCH          = 2026-01-22T15:14:19.231584
MEAN_MOTION    = 14.61315629
ECCENTRICITY   = .00771951
INCLINATION    = 65.0771
RA_OF_ASC_NODE = 106.2551
ARG_OF_PERICENTER = 306.9094
MEAN_ANOMALY   = 52.4949

EPHEMERIS_TYPE = 0
CLASSIFICATION_TYPE = U
NORAD_CAT_ID   = 877
ELEMENT_SET_NO = 999
REV_AT_EPOCH   = 26006
BSTAR          = .15078039E-3
MEAN_MOTION_DOT = .653E-5
MEAN_MOTION_DDOT = 0

CCSDS_OMM_VERS = 2.0
CREATION_DATE  = 
ORIGINATOR     = 

OBJECT_NAME    = SL-8 R/B
OBJECT_ID      = 1967-045B
CENTER_NAME    = EARTH
REF_FRAME      = TEME
TIME_SYSTEM    = UTC
MEAN_ELEMENT_THEORY = SGP/SGP4

EPOCH          = 2026-01-22T13:19:00.423264
MEAN_MOTION    = 14.45579469
ECCENTRICITY   = .0062837
INCLINATION    = 74.0104
RA_OF_ASC_NODE = 74.2485
ARG_OF_PERICENTER = 92.6789
MEAN_ANOMALY   = 268.1563

EPHEMERIS_TYPE = 0
CLASSIFICATION_TYPE = U
NORAD_CAT_ID   = 2802
ELEMENT_SET_NO = 999
REV_AT_EPOCH   = 8235
BSTAR          = .15738346E-3
MEAN_MOTION_DOT = .542E-5
MEAN_MOTION_DDOT = 0

CCSDS_OMM_VERS = 2.0
CREATION_DATE  = 
ORIGINATOR     = 

OBJECT_NAME    = SL-8 R/B
OBJECT_ID      = 1968-040B
CENTER_NAME    = EARTH
REF_FRAME      = TEME
TIME_SYSTEM    = UTC
MEAN_ELEMENT_THEORY = SGP/SGP4

EPOCH          = 2026-01-22T12:25:40.127520
MEAN_MOTION    = 15.02867557
ECCENTRICITY   = .00260063
INCLINATION    = 74.0305
RA_OF_ASC_NODE = 48.0099
ARG_OF_PERICENTER = 243.8074
MEAN_ANOMALY   = 116.0440

EPHEMERIS_TYPE = 0
CLASSIFICATION_TYPE = U
NORAD_CAT_ID   = 3230
ELEMENT_SET_NO = 999
REV_AT_EPOCH   = 8307
BSTAR          = .32493258E-3
MEAN_MOTION_DOT = .4348E-4
MEAN_MOTION_DDOT = 0

CCSDS_OMM_VERS = 2.0
CREATION_DATE  = 
ORIGINATOR     = 

OBJECT_NAME    = OAO 2
OBJECT_ID      = 1968-110A
CENTER_NAME    = EARTH
REF_FRAME      = TEME
TIME_SYSTEM    = UTC
MEAN_ELEMENT_THEORY = SGP/SGP4

EPOCH          = 2026-01-22T16:46:24.841632
MEAN_MOTION    = 14.47273902
ECCENTRICITY   = .00055905
INCLINATION    = 34.9920
RA_OF_ASC_NODE = 161.9934
ARG_OF_PERICENTER = 195.8543
MEAN_ANOMALY   = 164.1973

EPHEMERIS_TYPE = 0
CLASSIFICATION_TYPE = U
NORAD_CAT_ID   = 3597
ELEMENT_SET_NO = 999
REV_AT_EPOCH   = 1243
BSTAR          = .13886476E-3
MEAN_MOTION_DOT = .496E-5
MEAN_MOTION_DDOT = 0

CCSDS_OMM_VERS = 2.0
CREATION_DATE  = 
ORIGINATOR     = 

OBJECT_NAME    = ISIS 1
OBJECT_ID      = 1969-009A
CENTER_NAME    = EARTH
REF_FRAME      = TEME
TIME_SYSTEM    = UTC
MEAN_ELEMENT_THEORY = SGP/SGP4

EPOCH          = 2026-01-22T18:42:17.085888
MEAN_MOTION    = 11.30384985
ECCENTRICITY   = .17078255
INCLINATION    = 88.4534
RA_OF_ASC_NODE = 160.3117
ARG_OF_PERICENTER = 181.8015
MEAN_ANOMALY   = 177.6282

EPHEMERIS_TYPE = 0
CLASSIFICATION_TYPE = U
NORAD_CAT_ID   = 3669
ELEMENT_SET_NO = 999
REV_AT_EPOCH   = 34334
BSTAR          = .40518844E-3
MEAN_MOTION_DOT = .578E-5
MEAN_MOTION_DDOT = 0

CCSDS_OMM_VERS = 2.0
CREATION_DATE  = 
ORIGINATOR     = 

OBJECT_NAME    = SERT 2
OBJECT_ID      = 1970-009A
CENTER_NAME    = EARTH
REF_FRAME      = TEME
TIME_SYSTEM    = UTC
MEAN_ELEMENT_THEORY = SGP/SGP4

EPOCH          = 2026-01-22T19:36:32.711328
MEAN_MOTION    = 13.58724205
ECCENTRICITY   = .00040782
INCLINATION    = 99.2704
RA_OF_ASC_NODE = 328.4354
ARG_OF_PERICENTER = 287.0899
MEAN_ANOMALY   = 105.7730

EPHEMERIS_TYPE = 0
CLASSIFICATION_TYPE = U
NORAD_CAT_ID   = 4327
ELEMENT_SET_NO = 999
REV_AT_EPOCH   = 77366
BSTAR          = .15653886E-3
MEAN_MOTION_DOT = .73E-6
MEAN_MOTION_DDOT = 0

CCSDS_OMM_VERS = 2.0
CREATION_DATE  = 
ORIGINATOR     = 

OBJECT_NAME    = SL-3 R/B
OBJECT_ID      = 1971-028B
CENTER_NAME    = EARTH
REF_FRAME      = TEME
TIME_SYSTEM    = UTC
MEAN_ELEMENT_THEORY = SGP/SGP4

EPOCH          = 2026-01-22T21:36:27.317088
MEAN_MOTION    = 15.57474301
ECCENTRICITY   = .00180871
INCLINATION    = 81.2369
RA_OF_ASC_NODE = 108.4311
ARG_OF_PERICENTER = 93.9960
MEAN_ANOMALY   = 266.3359

EPHEMERIS_TYPE = 0
CLASSIFICATION_TYPE = U
NORAD_CAT_ID   = 5118
ELEMENT_SET_NO = 999
REV_AT_EPOCH   = 98153
BSTAR          = .48255298E-3
MEAN_MOTION_DOT = .35835E-3
MEAN_MOTION_DDOT = 0

CCSDS_OMM_VERS = 2.0
CREATION_DATE  = 
ORIGINATOR     = 

OBJECT_NAME    = ASTEX 1
OBJECT_ID      = 1971-089A
CENTER_NAME    = EARTH
REF_FRAME      = TEME
TIME_SYSTEM    = UTC
MEAN_ELEMENT_THEORY = SGP/SGP4

EPOCH          = 2026-01-22T17:55:38.784288
MEAN_MOTION    = 14.50704822
ECCENTRICITY   = .00137408
INCLINATION    = 92.7156
RA_OF_ASC_NODE = 136.8924
ARG_OF_PERICENTER = 234.8374
MEAN_ANOMALY   = 125.1546

EPHEMERIS_TYPE = 0
CLASSIFICATION_TYPE = U
NORAD_CAT_ID   = 5560
ELEMENT_SET_NO = 999
REV_AT_EPOCH   = 85564
BSTAR          = .29596226E-3
MEAN_MOTION_DOT = .1163E-4
MEAN_MOTION_DDOT = 0

CCSDS_OMM_VERS = 2.0
CREATION_DATE  = 
ORIGINATOR     = 

OBJECT_NAME    = SL-8 R/B
OBJECT_ID      = 1971-119B
CENTER_NAME    = EARTH
REF_FRAME      = TEME
TIME_SYSTEM    = UTC
MEAN_ELEMENT_THEORY = SGP/SGP4

EPOCH          = 2026-01-22T15:27:12.154752
MEAN_MOTION    = 14.36626138
ECCENTRICITY   = .05556282
INCLINATION    = 73.8864
RA_OF_ASC_NODE = 261.7092
ARG_OF_PERICENTER = 237.7417
MEAN_ANOMALY   = 116.8749

EPHEMERIS_TYPE = 0
CLASSIFICATION_TYPE = U
NORAD_CAT_ID   = 5730
ELEMENT_SET_NO = 999
REV_AT_EPOCH   = 64887
BSTAR          = .43348169E-3
MEAN_MOTION_DOT = .8332E-4
MEAN_MOTION_DDOT = 0

CCSDS_OMM_VERS = 2.0
CREATION_DATE  = 
ORIGINATOR     = 

OBJECT_NAME    = OAO 3 (COPERNICUS)
OBJECT_ID      = 1972-065A
CENTER_NAME    = EARTH
REF_FRAME      = TEME
TIME_SYSTEM    = UTC
MEAN_ELEMENT_THEORY = SGP/SGP4

EPOCH          = 2026-01-22T20:47:58.159104
MEAN_MOTION    = 14.59950429
ECCENTRICITY   = .00061766
INCLINATION    = 35.0038
RA_OF_ASC_NODE = 198.3787
ARG_OF_PERICENTER = 150.9703
MEAN_ANOMALY   = 9.0316

EPHEMERIS_TYPE = 0
CLASSIFICATION_TYPE = U
NORAD_CAT_ID   = 6153
ELEMENT_SET_NO = 999
REV_AT_EPOCH   = 83949
BSTAR          = .14435861E-3
MEAN_MOTION_DOT = .682E-5
MEAN_MOTION_DDOT = 0

